ASTRA 1D                
1 23331U 94070A   21118.21875722 -.00000272  00000-0  00000-0 0  9991
2 23331   9.5397  40.3532 0003859   0.0991 181.6927  1.00275059 97478
AMC-1 (GE-1)            
1 24315U 96054A   21118.63299080  .00000062  00000-0  00000-0 0  9997
2 24315   4.6543  76.4439 0003444 319.8732 277.4749  1.00272425 27518
AMC-3 (GE-3)            
1 24936U 97050A   21118.84424326 -.00000264  00000-0  00000-0 0  9994
2 24936   3.5467  83.1432 0003422 321.0233  44.7877  1.00271054 33639
NSS-5                   
1 24957U 97053A   21118.92054998  .00000099  00000-0  00000-0 0  9998
2 24957   6.6050  61.9724 0003908 341.4266 195.5948  1.00273649 86367
ASTRA 1G                
1 25071U 97076A   21119.10846073  .00000111  00000-0  00000+0 0  9999
2 25071   5.3137  71.2339 0004053 324.7643 239.7225  1.00269512 85731
ASTRA 2A                
1 25462U 98050A   21118.80188365  .00000145  00000-0  00000-0 0  9993
2 25462   2.3837  89.8558 0002654 318.6691 125.0983  1.00273445 27539
AMC-4 (GE-4)            
1 25954U 99060A   21118.84980038  .00000083  00000-0  00000-0 0  9993
2 25954   0.4903  96.0734 0003369 310.7704 341.2144  1.00272325 24743
ASTRA 2B                
1 26494U 00054A   21119.10854796  .00000112  00000-0  00000+0 0  9991
2 26494   5.2160  71.8263 0005554 330.5709 233.5403  1.00270387 75431
NSS-11 (AAP-1)          
1 26554U 00059A   21118.85257494  .00000020  00000-0  00000-0 0  9995
2 26554   0.0092  70.6323 0003424 317.0543 312.2769  1.00272659 22491
AMC-6 (GE-6)            
1 26580U 00067A   21118.75535572  .00000100  00000-0  00000-0 0  9997
2 26580   0.0050  44.5147 0002994 356.1099 309.2331  1.00270089 75112
ASTRA 2D                
1 26638U 00081A   21118.46999468  .00000059  00000-0  00000-0 0  9996
2 26638   6.4327  62.9186 0002264 315.4875  64.6879  1.00269728 34101
AMC-8 (GE-8)            
1 26639U 00081B   21118.71884229  .00000084  00000-0  00000-0 0  9991
2 26639   1.4203  92.7839 0002519 305.8031 302.1012  1.00270942 74525
ASTRA 2C                
1 26853U 01025A   21118.74797907  .00000036  00000-0  00000+0 0  9993
2 26853   3.5724  82.9286 0003737 297.6117 116.7948  1.00062796 72775
ASTRA 3A                
1 27400U 02015B   21118.87194132 -.00000207  00000-0  00000-0 0  9999
2 27400   6.5505  61.7250 0001835 343.2625  39.2156  1.00271005 69927
NSS-7                   
1 27414U 02019A   21118.74169809 -.00000161  00000-0  00000-0 0  9996
2 27414   4.9472  74.5019 0002526 330.0155  59.4059  1.00271707 69769
NSS-6                   
1 27603U 02057A   21118.71195065  .00000103  00000-0  00000-0 0  9993
2 27603   0.5797  96.0745 0004392 302.6813 264.9165  1.00272049 67236
AMC-11 (GE-11)          
1 28252U 04017A   21119.07966226  .00000063  00000-0  00000+0 0  9991
2 28252   0.0450  73.7244 0002769 338.5676  62.6414  1.00272612 61909
AMC-15                  
1 28446U 04041A   21118.63374976 -.00000092  00000-0  00000-0 0  9993
2 28446   0.0453  66.3854 0002612 332.5445 300.9738  1.00262790 60516
AMC-16                  
1 28472U 04048A   21118.87237750 -.00000211  00000-0  00000-0 0  9996
2 28472   0.0069  35.1864 0002834  16.9468  33.9682  1.00270536 59883
NSS-10 (AMC-12)         
1 28526U 05003A   21118.88179896 -.00000255  00000-0  00000-0 0  9993
2 28526   1.7703  91.5286 0003156 305.5398  99.9896  1.00271540 34357
ASTRA 1KR               
1 29055U 06012A   21118.74954932  .00000115  00000-0  00000-0 0  9993
2 29055   0.0438 271.4584 0000799 105.8597 128.6138  1.00272292 26922
AMC-18                  
1 29644U 06054B   21118.87272644 -.00000221  00000-0  00000-0 0  9999
2 29644   0.0183 290.7752 0002318 113.5360  43.9241  1.00272335 52759
ASTRA 1L                
1 31306U 07016A   21118.74954932  .00000115  00000-0  00000-0 0  9990
2 31306   0.0590 303.5255 0003342  58.7665 143.6397  1.00272210 26232
ASTRA 4A (SIRIUS 4)     
1 32299U 07057A   21119.10558194  .00000027  00000-0  00000+0 0  9999
2 32299   0.0504  74.5770 0003096 340.6568 204.8785  1.00273256 49155
AMC-21                  
1 33275U 08038B   21118.85535475  .00000031  00000-0  00000-0 0  9998
2 33275   0.0245 298.8057 0002564  98.9495   2.3128  1.00272222 46681
ASTRA 1M                
1 33436U 08057A   21118.74954932  .00000115  00000-0  00000-0 0  9992
2 33436   0.0799  98.0392 0003478 342.1022  65.8068  1.00270705 26938
CIEL-2                  
1 33453U 08063A   21118.85535475  .00000053  00000-0  00000-0 0  9998
2 33453   0.0330 126.9913 0003100 279.9510 349.1732  1.00272651 45332
NSS-9                   
1 33749U 09008A   21118.71046764  .00000067  00000-0  00000-0 0  9994
2 33749   0.0219   8.0342 0002385  35.4060 252.2858  1.00272327 44726
SES-7 (PROTOSTAR 2)     
1 34941U 09027A   21118.87827149 -.00000350  00000-0  00000-0 0  9997
2 34941   0.0736  88.4021 0000418 345.4735 207.6011  1.00269208 43817
NSS-12                  
1 36032U 09058A   21119.14103737  .00000066  00000-0  00000+0 0  9997
2 36032   0.0560  85.9954 0002954 320.8807 278.2120  1.00270408 42117
SES-1                   
1 36516U 10016A   21118.63825538 -.00000119  00000-0  00000-0 0  9994
2 36516   0.0639  84.5593 0002627 316.1781 304.8697  1.00272085 40230
ASTRA 3B                
1 36581U 10021A   21118.60691861  .00000133  00000-0  00000-0 0  9994
2 36581   0.0443  32.3528 0002791   7.0496  59.4132  1.00275420 40070
SES-3                   
1 37748U 11035A   21118.65341535 -.00000106  00000-0  00000-0 0  9992
2 37748   0.0236  65.1377 0002727 328.5318 315.3895  1.00270875 35797
ASTRA 1N                
1 37775U 11041A   21118.60604625  .00000115  00000-0  00000-0 0  9995
2 37775   0.0826  67.7782 0006098 328.5382  57.8366  1.00271482 25724
SES-2                   
1 37809U 11049A   21118.51308920 -.00000200  00000-0  00000-0 0  9996
2 37809   0.0215 294.8340 0003010 105.8704 273.7012  1.00271466 35159
QUETZSAT 1              
1 37826U 11054A   21119.16577000 -.00000247  00000-0  00000+0 0  9990
2 37826   0.0562  84.5425 0002695 324.1131 151.3541  1.00270101 35297
SES-4                   
1 38087U 12007A   21118.88493946 -.00000173  00000-0  00000+0 0  9991
2 38087   0.0209 308.2817 0002442  96.9852 108.3770  1.00272431 33685
SES-5                   
1 38652U 12036A   21118.74675778  .00000029  00000-0  00000+0 0  9990
2 38652   0.0311 299.4432 0002134 104.1342  87.1652  1.00271508 32265
ASTRA 2F                
1 38778U 12051A   21118.80188365  .00000145  00000-0  00000-0 0  9994
2 38778   0.0538 230.6661 0000362  61.2605 241.9063  1.00271112 22314
SES-6                   
1 39172U 13026A   21118.73768524 -.00000266  00000-0  00000-0 0  9994
2 39172   0.0237 304.6182 0002132  96.6351  40.7346  1.00271704 28914
O3B FM5                 
1 39188U 13031A   21118.67992338 -.00000019  00000-0  00000-0 0  9998
2 39188   0.0653   6.3598 0002325  21.2119 332.4419  5.00115889143218
O3B FM4                 
1 39189U 13031B   21118.54579432 -.00000019  00000-0  00000-0 0  9991
2 39189   0.0376   5.1039 0004687  36.8877 318.0456  5.00116006143228
O3B FM2                 
1 39190U 13031C   21118.39825316 -.00000019  00000-0  00000-0 0  9991
2 39190   0.0326   2.6275 0007781  44.7210 312.7184  5.00115662143277
O3B PFM                 
1 39191U 13031D   21118.45180107 -.00000019  00000-0  00000-0 0  9991
2 39191   0.0563   7.5900 0002880  20.7706 331.6564  5.00115654143069
ASTRA 2E                
1 39285U 13056A   21118.75138127  .00000145  00000-0  00000-0 0  9999
2 39285   0.0895  56.4706 0001954 346.9648 112.4680  1.00272530 27649
SES-8                   
1 39460U 13071A   21118.62113806 -.00000274  00000-0  00000-0 0  9998
2 39460   0.0154 233.1189 0002903 190.2125 112.0784  1.00269271 25643
ASTRA 5B                
1 39617U 14011B   21118.80188365  .00000149  00000-0  00000-0 0  9999
2 39617   0.0363 355.5383 0003242  56.7171 124.9129  1.00273498 25863
O3B FM3                 
1 40079U 14038A   21118.93260766 -.00000020  00000-0  00000+0 0  9990
2 40079   0.0453   4.7410 0000269   0.6342 354.6262  5.00115433124302
O3B FM7                 
1 40080U 14038B   21118.47930842 -.00000019  00000-0  00000-0 0  9999
2 40080   0.0427 359.8531 0004406  33.8036 326.3726  5.00115669124041
O3B FM6                 
1 40081U 14038C   21118.70529117 -.00000019  00000-0  00000-0 0  9995
2 40081   0.0444   5.6601 0002631  30.2496 324.1092  5.00115611124009
O3B FM8                 
1 40082U 14038D   21118.55930355 -.00000019  00000-0  00000-0 0  9999
2 40082   0.0414   6.8221 0002578  32.8542 320.3438  5.00115283124117
O3B FM10                
1 40348U 14083A   21117.98591606 -.00000018  00000-0  00000-0 0  9991
2 40348   0.0522  10.9263 0002502  26.9160 322.1767  5.00115727116031
O3B FM11                
1 40349U 14083B   21118.59875827 -.00000019  00000-0  00000-0 0  9991
2 40349   0.0535   5.8860 0003085  22.5825 331.5496  5.00115730116081
O3B FM12                
1 40350U 14083C   21118.86622825 -.00000020  00000-0  00000+0 0  9992
2 40350   0.0524   6.3022 0002782  32.5378 321.1811  5.00115618116232
O3B FM9                 
1 40351U 14083D   21118.65260581 -.00000019  00000-0  00000-0 0  9996
2 40351   0.0541   4.8265 0002563  31.7296 323.4626  5.00115099116244
ASTRA 2G                
1 40364U 14089A   21119.11418464  .00000144  00000-0  00000+0 0  9990
2 40364   0.0452  45.3213 0004915   2.0807 239.1973  1.00266470 23212
SES-9                   
1 41380U 16013A   21118.87827149 -.00000351  00000-0  00000-0 0  9996
2 41380   0.0172 277.7051 0002105 150.7728 213.0593  1.00271319 18630
SES-10                  
1 42432U 17017A   21118.83868868 -.00000277  00000-0  00000-0 0  9996
2 42432   0.0162 291.6657 0002932 113.6087  46.7713  1.00268937 14946
SES-15                  
1 42709U 17026A   21119.13105012  .00000054  00000-0  00000+0 0  9993
2 42709   0.0328  43.5112 0000507   8.3796  83.4416  1.00270373 15384
SES-11 (ECHOSTAR 105)   
1 42967U 17063A   21118.84980038 -.00000095  00000-0  00000-0 0  9993
2 42967   0.0523  87.0069 0002048 305.4802  25.5318  1.00274241 12914
SES-14                  
1 43175U 18012B   21118.81507773 -.00000283  00000-0  00000-0 0  9997
2 43175   0.0169 288.1460 0001034 131.0074  43.7690  1.00271495 12260
O3B FM15                
1 43231U 18024A   21118.31937235 -.00000019  00000-0  00000-0 0  9995
2 43231   0.0521  14.7991 0002711  19.0792 326.1403  5.00115492 57180
O3B FM16                
1 43232U 18024B   21118.37267357 -.00000019  00000-0  00000-0 0  9993
2 43232   0.0531  19.1774 0002750  14.4135 326.4279  5.00115466 57098
O3B FM14                
1 43233U 18024C   21119.01217722 -.00000020  00000-0  00000+0 0  9998
2 43233   0.0529  20.8213 0002924  13.6027 325.5960  5.00115932 57362
O3B FM13                
1 43234U 18024D   21118.42614533 -.00000019  00000-0  00000-0 0  9993
2 43234   0.0704 359.7665 0003694 348.0421  12.1837  5.00115645 57230
SES-12                  
1 43488U 18049A   21119.12337808 -.00000275  00000-0  00000+0 0  9999
2 43488   0.0494  73.2554 0001211 238.3313  45.1307  1.00271255 10622
O3B FM20                
1 44112U 19020A   21119.03845953 -.00000020  00000-0  00000+0 0  9997
2 44112   0.0516  10.9530 0002867  16.8184 332.2450  5.00115577 37836
O3B FM19                
1 44113U 19020B   21118.42615336 -.00000019  00000-0  00000-0 0  9999
2 44113   0.0620  11.0867 0002026 358.9029 350.0158  5.00115605 37580
O3B FM17                
1 44114U 19020C   21118.54595643 -.00000019  00000-0  00000-0 0  9991
2 44114   0.0377  29.6443 0002678   2.7105 327.6629  5.00115065 37692
O3B FM18                
1 44115U 19020D   21118.69267881 -.00000019  00000-0  00000-0 0  9998
2 44115   0.0519  10.7470 0002698  26.0339 323.2389  5.00115485 37828
